SL-16 R/B               
1 25400U 98043G   25338.58911704  .00000166  00000+0  88455-4 0  9997
2 25400  98.8111 286.3620 0008896 293.1404  66.8838 14.26022524425437
SL-16 R/B               
1 25407U 98045B   25338.57118184  .00000081  00000+0  65120-4 0  9996
2 25407  71.0126  21.6052 0007393 189.6967 170.4015 14.16175731413632
ISS (ZARYA)             
1 25544U 98067A   25338.54339931  .00015910  00000+0  29318-3 0  9999
2 25544  51.6299 183.0583 0003596 202.7086 157.3744 15.49306035541580
CZ-4B R/B               
1 25732U 99025C   25338.71751471  .00000184  00000+0  10976-3 0  9996
2 25732  98.6779  20.1766 0036135 257.7122 219.4197 14.18240754374703
OKEAN-O                 
1 25860U 99039A   25338.67735810  .00001469  00000+0  20042-3 0  9999
2 25860  97.9614  34.4483 0000781  79.7560 280.3740 14.80139855420335
SL-16 R/B               
1 25861U 99039B   25338.68019192  .00001291  00000+0  17105-3 0  9998
2 25861  98.0137  32.8305 0014320 201.1974 158.8647 14.81568719422790
DELTA 2 R/B             
1 25876U 99041E   25338.64106394  .00002205  00000+0  39402-3 0  9994
2 25876  51.7623 320.7748 0504814  67.8970 297.4755 14.11369391349603
HELIOS 1B               
1 25977U 99064A   25338.66274741  .00004913  00000+0  55175-3 0  9998
2 25977  98.1756 233.0886 0002128  53.8361 306.3050 14.87229516671137
TERRA                   
1 25994U 99068A   25338.66242390  .00001013  00000+0  21596-3 0  9994
2 25994  97.9760  30.6428 0003445 114.1052   0.7210 14.60938484381203
SL-16 R/B               
1 26070U 00006B   25338.63258097  .00000294  00000+0  17385-3 0  9993
2 26070  71.0028 297.7036 0018050 319.9132  40.0658 14.15808731335104
TITAN 4B R/B            
1 26474U 00047B   25338.65509747  .00008016  00000+0  50884-3 0  9990
2 26474  67.9901 307.5589 0039588 154.2936 206.0193 15.08687373378576
ENVISAT                 
1 27386U 02009A   25338.65272536  .00000286  00000+0  10640-3 0  9993
2 27386  98.3587 289.5987 0001146  82.1099  91.1909 14.38994663245505
