CCSDS_OMM_VERS = 2.0
CREATION_DATE  = 
ORIGINATOR     = 

OBJECT_NAME    = SL-16 R/B
OBJECT_ID      = 1998-043G
CENTER_NAME    = EARTH
REF_FRAME      = TEME
TIME_SYSTEM    = UTC
MEAN_ELEMENT_THEORY = SGP/SGP4

EPOCH          = 2025-12-04T14:08:19.712256
MEAN_MOTION    = 14.26022524
ECCENTRICITY   = .0008896
INCLINATION    = 98.8111
RA_OF_ASC_NODE = 286.3620
ARG_OF_PERICENTER = 293.1404
MEAN_ANOMALY   = 66.8838

EPHEMERIS_TYPE = 0
CLASSIFICATION_TYPE = U
NORAD_CAT_ID   = 25400
ELEMENT_SET_NO = 999
REV_AT_EPOCH   = 42543
BSTAR          = .88455E-4
MEAN_MOTION_DOT = .166E-5
MEAN_MOTION_DDOT = 0

CCSDS_OMM_VERS = 2.0
CREATION_DATE  = 
ORIGINATOR     = 

OBJECT_NAME    = SL-16 R/B
OBJECT_ID      = 1998-045B
CENTER_NAME    = EARTH
REF_FRAME      = TEME
TIME_SYSTEM    = UTC
MEAN_ELEMENT_THEORY = SGP/SGP4

EPOCH          = 2025-12-04T13:42:30.110976
MEAN_MOTION    = 14.16175731
ECCENTRICITY   = .0007393
INCLINATION    = 71.0126
RA_OF_ASC_NODE = 21.6052
ARG_OF_PERICENTER = 189.6967
MEAN_ANOMALY   = 170.4015

EPHEMERIS_TYPE = 0
CLASSIFICATION_TYPE = U
NORAD_CAT_ID   = 25407
ELEMENT_SET_NO = 999
REV_AT_EPOCH   = 41363
BSTAR          = .6512E-4
MEAN_MOTION_DOT = .81E-6
MEAN_MOTION_DDOT = 0

CCSDS_OMM_VERS = 2.0
CREATION_DATE  = 
ORIGINATOR     = 

OBJECT_NAME    = ISS (ZARYA)
OBJECT_ID      = 1998-067A
CENTER_NAME    = EARTH
REF_FRAME      = TEME
TIME_SYSTEM    = UTC
MEAN_ELEMENT_THEORY = SGP/SGP4

EPOCH          = 2025-12-04T13:02:29.700384
MEAN_MOTION    = 15.49306035
ECCENTRICITY   = .0003596
INCLINATION    = 51.6299
RA_OF_ASC_NODE = 183.0583
ARG_OF_PERICENTER = 202.7086
MEAN_ANOMALY   = 157.3744

EPHEMERIS_TYPE = 0
CLASSIFICATION_TYPE = U
NORAD_CAT_ID   = 25544
ELEMENT_SET_NO = 999
REV_AT_EPOCH   = 54158
BSTAR          = .29318E-3
MEAN_MOTION_DOT = .1591E-3
MEAN_MOTION_DDOT = 0

CCSDS_OMM_VERS = 2.0
CREATION_DATE  = 
ORIGINATOR     = 

OBJECT_NAME    = CZ-4B R/B
OBJECT_ID      = 1999-025C
CENTER_NAME    = EARTH
REF_FRAME      = TEME
TIME_SYSTEM    = UTC
MEAN_ELEMENT_THEORY = SGP/SGP4

EPOCH          = 2025-12-04T17:13:13.270944
MEAN_MOTION    = 14.18240754
ECCENTRICITY   = .0036135
INCLINATION    = 98.6779
RA_OF_ASC_NODE = 20.1766
ARG_OF_PERICENTER = 257.7122
MEAN_ANOMALY   = 219.4197

EPHEMERIS_TYPE = 0
CLASSIFICATION_TYPE = U
NORAD_CAT_ID   = 25732
ELEMENT_SET_NO = 999
REV_AT_EPOCH   = 37470
BSTAR          = .10976E-3
MEAN_MOTION_DOT = .184E-5
MEAN_MOTION_DDOT = 0

CCSDS_OMM_VERS = 2.0
CREATION_DATE  = 
ORIGINATOR     = 

OBJECT_NAME    = OKEAN-O
OBJECT_ID      = 1999-039A
CENTER_NAME    = EARTH
REF_FRAME      = TEME
TIME_SYSTEM    = UTC
MEAN_ELEMENT_THEORY = SGP/SGP4

EPOCH          = 2025-12-04T16:15:23.739840
MEAN_MOTION    = 14.80139855
ECCENTRICITY   = .0000781
INCLINATION    = 97.9614
RA_OF_ASC_NODE = 34.4483
ARG_OF_PERICENTER = 79.7560
MEAN_ANOMALY   = 280.3740

EPHEMERIS_TYPE = 0
CLASSIFICATION_TYPE = U
NORAD_CAT_ID   = 25860
ELEMENT_SET_NO = 999
REV_AT_EPOCH   = 42033
BSTAR          = .20042E-3
MEAN_MOTION_DOT = .1469E-4
MEAN_MOTION_DDOT = 0

CCSDS_OMM_VERS = 2.0
CREATION_DATE  = 
ORIGINATOR     = 

OBJECT_NAME    = SL-16 R/B
OBJECT_ID      = 1999-039B
CENTER_NAME    = EARTH
REF_FRAME      = TEME
TIME_SYSTEM    = UTC
MEAN_ELEMENT_THEORY = SGP/SGP4

EPOCH          = 2025-12-04T16:19:28.581888
MEAN_MOTION    = 14.81568719
ECCENTRICITY   = .001432
INCLINATION    = 98.0137
RA_OF_ASC_NODE = 32.8305
ARG_OF_PERICENTER = 201.1974
MEAN_ANOMALY   = 158.8647

EPHEMERIS_TYPE = 0
CLASSIFICATION_TYPE = U
NORAD_CAT_ID   = 25861
ELEMENT_SET_NO = 999
REV_AT_EPOCH   = 42279
BSTAR          = .17105E-3
MEAN_MOTION_DOT = .1291E-4
MEAN_MOTION_DDOT = 0

CCSDS_OMM_VERS = 2.0
CREATION_DATE  = 
ORIGINATOR     = 

OBJECT_NAME    = DELTA 2 R/B
OBJECT_ID      = 1999-041E
CENTER_NAME    = EARTH
REF_FRAME      = TEME
TIME_SYSTEM    = UTC
MEAN_ELEMENT_THEORY = SGP/SGP4

EPOCH          = 2025-12-04T15:23:07.924416
MEAN_MOTION    = 14.11369391
ECCENTRICITY   = .0504814
INCLINATION    = 51.7623
RA_OF_ASC_NODE = 320.7748
ARG_OF_PERICENTER = 67.8970
MEAN_ANOMALY   = 297.4755

EPHEMERIS_TYPE = 0
CLASSIFICATION_TYPE = U
NORAD_CAT_ID   = 25876
ELEMENT_SET_NO = 999
REV_AT_EPOCH   = 34960
BSTAR          = .39402E-3
MEAN_MOTION_DOT = .2205E-4
MEAN_MOTION_DDOT = 0

CCSDS_OMM_VERS = 2.0
CREATION_DATE  = 
ORIGINATOR     = 

OBJECT_NAME    = HELIOS 1B
OBJECT_ID      = 1999-064A
CENTER_NAME    = EARTH
REF_FRAME      = TEME
TIME_SYSTEM    = UTC
MEAN_ELEMENT_THEORY = SGP/SGP4

EPOCH          = 2025-12-04T15:54:21.376224
MEAN_MOTION    = 14.87229516
ECCENTRICITY   = .0002128
INCLINATION    = 98.1756
RA_OF_ASC_NODE = 233.0886
ARG_OF_PERICENTER = 53.8361
MEAN_ANOMALY   = 306.3050

EPHEMERIS_TYPE = 0
CLASSIFICATION_TYPE = U
NORAD_CAT_ID   = 25977
ELEMENT_SET_NO = 999
REV_AT_EPOCH   = 67113
BSTAR          = .55175E-3
MEAN_MOTION_DOT = .4913E-4
MEAN_MOTION_DDOT = 0

CCSDS_OMM_VERS = 2.0
CREATION_DATE  = 
ORIGINATOR     = 

OBJECT_NAME    = TERRA
OBJECT_ID      = 1999-068A
CENTER_NAME    = EARTH
REF_FRAME      = TEME
TIME_SYSTEM    = UTC
MEAN_ELEMENT_THEORY = SGP/SGP4

EPOCH          = 2025-12-04T15:53:53.424960
MEAN_MOTION    = 14.60938484
ECCENTRICITY   = .0003445
INCLINATION    = 97.9760
RA_OF_ASC_NODE = 30.6428
ARG_OF_PERICENTER = 114.1052
MEAN_ANOMALY   = 0.7210

EPHEMERIS_TYPE = 0
CLASSIFICATION_TYPE = U
NORAD_CAT_ID   = 25994
ELEMENT_SET_NO = 999
REV_AT_EPOCH   = 38120
BSTAR          = .21596E-3
MEAN_MOTION_DOT = .1013E-4
MEAN_MOTION_DDOT = 0

CCSDS_OMM_VERS = 2.0
CREATION_DATE  = 
ORIGINATOR     = 

OBJECT_NAME    = SL-16 R/B
OBJECT_ID      = 2000-006B
CENTER_NAME    = EARTH
REF_FRAME      = TEME
TIME_SYSTEM    = UTC
MEAN_ELEMENT_THEORY = SGP/SGP4

EPOCH          = 2025-12-04T15:10:54.995808
MEAN_MOTION    = 14.15808731
ECCENTRICITY   = .001805
INCLINATION    = 71.0028
RA_OF_ASC_NODE = 297.7036
ARG_OF_PERICENTER = 319.9132
MEAN_ANOMALY   = 40.0658

EPHEMERIS_TYPE = 0
CLASSIFICATION_TYPE = U
NORAD_CAT_ID   = 26070
ELEMENT_SET_NO = 999
REV_AT_EPOCH   = 33510
BSTAR          = .17385E-3
MEAN_MOTION_DOT = .294E-5
MEAN_MOTION_DDOT = 0

CCSDS_OMM_VERS = 2.0
CREATION_DATE  = 
ORIGINATOR     = 

OBJECT_NAME    = TITAN 4B R/B
OBJECT_ID      = 2000-047B
CENTER_NAME    = EARTH
REF_FRAME      = TEME
TIME_SYSTEM    = UTC
MEAN_ELEMENT_THEORY = SGP/SGP4

EPOCH          = 2025-12-04T15:43:20.421408
MEAN_MOTION    = 15.08687373
ECCENTRICITY   = .0039588
INCLINATION    = 67.9901
RA_OF_ASC_NODE = 307.5589
ARG_OF_PERICENTER = 154.2936
MEAN_ANOMALY   = 206.0193

EPHEMERIS_TYPE = 0
CLASSIFICATION_TYPE = U
NORAD_CAT_ID   = 26474
ELEMENT_SET_NO = 999
REV_AT_EPOCH   = 37857
BSTAR          = .50884E-3
MEAN_MOTION_DOT = .8016E-4
MEAN_MOTION_DDOT = 0

CCSDS_OMM_VERS = 2.0
CREATION_DATE  = 
ORIGINATOR     = 

OBJECT_NAME    = ENVISAT
OBJECT_ID      = 2002-009A
CENTER_NAME    = EARTH
REF_FRAME      = TEME
TIME_SYSTEM    = UTC
MEAN_ELEMENT_THEORY = SGP/SGP4

EPOCH          = 2025-12-04T15:39:55.471104
MEAN_MOTION    = 14.38994663
ECCENTRICITY   = .0001146
INCLINATION    = 98.3587
RA_OF_ASC_NODE = 289.5987
ARG_OF_PERICENTER = 82.1099
MEAN_ANOMALY   = 91.1909

EPHEMERIS_TYPE = 0
CLASSIFICATION_TYPE = U
NORAD_CAT_ID   = 27386
ELEMENT_SET_NO = 999
REV_AT_EPOCH   = 24550
BSTAR          = .1064E-3
MEAN_MOTION_DOT = .286E-5
MEAN_MOTION_DDOT = 0

